AXFSSAMPLE01
HFDTEDATE:071026
HFPLTPILOTINCHARGE:SYNTHETIC SAMPLE
HFCM2CREW2:NIL
HFGTYGLIDERTYPE:NKN
HFGIDGLIDERID:NKN
HFDTMGPSDATUM:WGS84
HFRFWFIRMWAREVERSION:SAMPLE
HFRHWHARDWAREVERSION:ANDROID,SAMPLE
HFFTYFRTYPE:FLYSAFE,ANDROID
HFGPSRECEIVER:ANDROID,LOCATIONMANAGER
HFPRSPRESSALTSENSOR:SAMPLE
HFALGALTGPS:GEO
HFALPALTPRESSURE:ISA
I013638FXA
LXFSFLYSAFE ED25519-SHA256-V1
B1234564630000N01430000EA0190002000005
B1234574630000N01430000EV0190100000000
G53DAAEAC77F3490DC71BA3D14CC1E303622D1875092492EBDBBBDC7803F741EB
G8BA9E4AC0EB3171451CC8C10747823493FAEC6DDB05F730FB7D3ADEAE5377A03
