AXFSSAMPLE02
HFDTE071026
HFPLTPILOTINCHARGE:SYNTHETIC SAMPLE
HFCM2CREW2:NIL
HFGTYGLIDERTYPE:NKN
HFGIDGLIDERID:NKN
HFRFWFIRMWAREVERSION:0.2.0-P1-prototype
HFRHWHARDWAREVERSION:FLYSAFE VARIO,P1
HFFTYFRTYPE:FLYSAFE,VARIO
HFGPSRECEIVER:U-BLOX,SAM-M10Q
HFPRSPRESSALTSENSOR:BOSCH,BMP390
HFDTM100GPSDATUM:WGS84
HFALGALTGPS:GEO
HFALPALTPRESSURE:ISA
LXFSFLYSAFE ED25519-SHA256-V1
B1234564630000N01430000EA0190002000
B1234574630000N01430000EV0190100000
G1125EE49A37D6BB842A71002952B16C70FEAAAEB44ACE6039EC8269EB2DF5484
G35A246E5A0640CB905A928FCD7AB49B22051216A8CB94CAB7DB882A9632E6806
